{
  "type": "FeatureCollection",
  "features": [
    {
      "type": "Feature",
      "properties": {
        "norad_id": 31358,
        "name": "FENGYUN 1C DEB",
        "group": "fengyun-1c-debris",
        "lat": -68.43063500171972,
        "lon": -60.14007183954696,
        "alt_km": 550.4931642604761,
        "timestamp": "2025-12-09T21:34:11.689951+00:00",
        "meta_object_name": "FENGYUN 1C DEB",
        "meta_object_id": "1999-025BRN",
        "meta_epoch": "2025-12-08T18:58:11.422272",
        "meta_mean_motion": 15.16798758,
        "meta_eccentricity": 0.00430604,
        "meta_inclination": 98.9078,
        "meta_ra_of_asc_node": 275.1829,
        "meta_arg_of_pericenter": 125.0516,
        "meta_mean_anomaly": 235.4764,
        "meta_ephemeris_type": 0,
        "meta_classification_type": "U",
        "meta_norad_cat_id": 31358,
        "meta_element_set_no": 999,
        "meta_rev_at_epoch": 97510,
        "meta_bstar": 0.0089378578,
        "meta_mean_motion_dot": 0.00183985,
        "meta_mean_motion_ddot": 0,
        "tle_line1": "1 31358U 99025BRN 25342.79040998  .00183985  00000+0  89379-2 0  9998",
        "tle_line2": "2 31358  98.9078 275.1829 0043060 125.0516 235.4764 15.16798758975100"
      },
      "geometry": {
        "type": "Point",
        "coordinates": [
          -60.14007183954696,
          -68.43063500171972
        ]
      }
    },
    {
      "type": "Feature",
      "properties": {
        "norad_id": 31361,
        "name": "FENGYUN 1C DEB",
        "group": "fengyun-1c-debris",
        "lat": 61.64389207411564,
        "lon": 155.50030935958887,
        "alt_km": 800.8307699876068,
        "timestamp": "2025-12-09T21:34:11.689963+00:00",
        "meta_object_name": "FENGYUN 1C DEB",
        "meta_object_id": "1999-025BRR",
        "meta_epoch": "2025-12-08T21:18:37.882080",
        "meta_mean_motion": 14.17741553,
        "meta_eccentricity": 0.0046197,
        "meta_inclination": 98.5505,
        "meta_ra_of_asc_node": 318.3412,
        "meta_arg_of_pericenter": 81.5105,
        "meta_mean_anomaly": 279.1302,
        "meta_ephemeris_type": 0,
        "meta_classification_type": "U",
        "meta_norad_cat_id": 31361,
        "meta_element_set_no": 999,
        "meta_rev_at_epoch": 96509,
        "meta_bstar": 0.00019491,
        "meta_mean_motion_dot": 3.6e-06,
        "meta_mean_motion_ddot": 0,
        "tle_line1": "1 31361U 99025BRR 25342.88793845  .00000360  00000+0  19491-3 0  9992",
        "tle_line2": "2 31361  98.5505 318.3412 0046197  81.5105 279.1302 14.17741553965098"
      },
      "geometry": {
        "type": "Point",
        "coordinates": [
          155.50030935958887,
          61.64389207411564
        ]
      }
    },
    {
      "type": "Feature",
      "properties": {
        "norad_id": 31362,
        "name": "FENGYUN 1C DEB",
        "group": "fengyun-1c-debris",
        "lat": 78.25057973139678,
        "lon": -154.6148411161418,
        "alt_km": 813.1199682099459,
        "timestamp": "2025-12-09T21:34:11.689973+00:00",
        "meta_object_name": "FENGYUN 1C DEB",
        "meta_object_id": "1999-025BRS",
        "meta_epoch": "2025-12-08T06:08:35.407104",
        "meta_mean_motion": 14.17373963,
        "meta_eccentricity": 0.00191957,
        "meta_inclination": 98.6522,
        "meta_ra_of_asc_node": 336.7253,
        "meta_arg_of_pericenter": 108.0096,
        "meta_mean_anomaly": 252.3173,
        "meta_ephemeris_type": 0,
        "meta_classification_type": "U",
        "meta_norad_cat_id": 31362,
        "meta_element_set_no": 999,
        "meta_rev_at_epoch": 96512,
        "meta_bstar": 0.00029141928,
        "meta_mean_motion_dot": 5.48e-06,
        "meta_mean_motion_ddot": 0,
        "tle_line1": "1 31362U 99025BRS 25342.25596536  .00000548  00000+0  29142-3 0  9994",
        "tle_line2": "2 31362  98.6522 336.7253 0019195 108.0096 252.3173 14.17373963965127"
      },
      "geometry": {
        "type": "Point",
        "coordinates": [
          -154.6148411161418,
          78.25057973139678
        ]
      }
    },
    {
      "type": "Feature",
      "properties": {
        "norad_id": 31364,
        "name": "FENGYUN 1C DEB",
        "group": "fengyun-1c-debris",
        "lat": 33.65862558405571,
        "lon": -70.32372320579783,
        "alt_km": 774.4913826374259,
        "timestamp": "2025-12-09T21:34:11.689985+00:00",
        "meta_object_name": "FENGYUN 1C DEB",
        "meta_object_id": "1999-025BRU",
        "meta_epoch": "2025-12-09T14:05:38.910624",
        "meta_mean_motion": 14.14594068,
        "meta_eccentricity": 0.00943748,
        "meta_inclination": 99.2626,
        "meta_ra_of_asc_node": 103.115,
        "meta_arg_of_pericenter": 157.3669,
        "meta_mean_anomaly": 203.1707,
        "meta_ephemeris_type": 0,
        "meta_classification_type": "U",
        "meta_norad_cat_id": 31364,
        "meta_element_set_no": 999,
        "meta_rev_at_epoch": 94832,
        "meta_bstar": 0.0043770016,
        "meta_mean_motion_dot": 8.739e-05,
        "meta_mean_motion_ddot": 0,
        "tle_line1": "1 31364U 99025BRU 25343.58725591  .00008739  00000+0  43770-2 0  9990",
        "tle_line2": "2 31364  99.2626 103.1150 0094374 157.3669 203.1707 14.14594068948326"
      },
      "geometry": {
        "type": "Point",
        "coordinates": [
          -70.32372320579783,
          33.65862558405571
        ]
      }
    },
    {
      "type": "Feature",
      "properties": {
        "norad_id": 31365,
        "name": "FENGYUN 1C DEB",
        "group": "fengyun-1c-debris",
        "lat": 4.998471883516526,
        "lon": -110.33348956441904,
        "alt_km": 736.7058762714023,
        "timestamp": "2025-12-09T21:34:11.689995+00:00",
        "meta_object_name": "FENGYUN 1C DEB",
        "meta_object_id": "1999-025BRV",
        "meta_epoch": "2025-12-09T04:06:08.460864",
        "meta_mean_motion": 14.41765907,
        "meta_eccentricity": 0.00421736,
        "meta_inclination": 98.6742,
        "meta_ra_of_asc_node": 68.1624,
        "meta_arg_of_pericenter": 229.9692,
        "meta_mean_anomaly": 129.7793,
        "meta_ephemeris_type": 0,
        "meta_classification_type": "U",
        "meta_norad_cat_id": 31365,
        "meta_element_set_no": 999,
        "meta_rev_at_epoch": 96577,
        "meta_bstar": 0.0026032691,
        "meta_mean_motion_dot": 8.554e-05,
        "meta_mean_motion_ddot": 0,
        "tle_line1": "1 31365U 99025BRV 25343.17093126  .00008554  00000+0  26033-2 0  9996",
        "tle_line2": "2 31365  98.6742  68.1624 0042173 229.9692 129.7793 14.41765907965775"
      },
      "geometry": {
        "type": "Point",
        "coordinates": [
          -110.33348956441904,
          4.998471883516526
        ]
      }
    },
    {
      "type": "Feature",
      "properties": {
        "norad_id": 31367,
        "name": "FENGYUN 1C DEB",
        "group": "fengyun-1c-debris",
        "lat": 18.951757091165625,
        "lon": -124.9627525114776,
        "alt_km": 663.604775906535,
        "timestamp": "2025-12-09T21:34:11.690007+00:00",
        "meta_object_name": "FENGYUN 1C DEB",
        "meta_object_id": "1999-025BRX",
        "meta_epoch": "2025-12-09T03:56:51.981792",
        "meta_mean_motion": 14.4746089,
        "meta_eccentricity": 0.00996107,
        "meta_inclination": 98.7455,
        "meta_ra_of_asc_node": 237.3085,
        "meta_arg_of_pericenter": 27.0536,
        "meta_mean_anomaly": 128.4488,
        "meta_ephemeris_type": 0,
        "meta_classification_type": "U",
        "meta_norad_cat_id": 31367,
        "meta_element_set_no": 999,
        "meta_rev_at_epoch": 98414,
        "meta_bstar": 0.0007892667,
        "meta_mean_motion_dot": 3.034e-05,
        "meta_mean_motion_ddot": 0,
        "tle_line1": "1 31367U 99025BRX 25343.16449053  .00003034  00000+0  78927-3 0  9999",
        "tle_line2": "2 31367  98.7455 237.3085 0099610  27.0536 128.4488 14.47460890984140"
      },
      "geometry": {
        "type": "Point",
        "coordinates": [
          -124.9627525114776,
          18.951757091165625
        ]
      }
    },
    {
      "type": "Feature",
      "properties": {
        "norad_id": 31369,
        "name": "FENGYUN 1C DEB",
        "group": "fengyun-1c-debris",
        "lat": -3.5854976848514943,
        "lon": -34.20590785385229,
        "alt_km": 804.4012372952293,
        "timestamp": "2025-12-09T21:34:11.690017+00:00",
        "meta_object_name": "FENGYUN 1C DEB",
        "meta_object_id": "1999-025BRZ",
        "meta_epoch": "2025-12-02T05:15:55.988064",
        "meta_mean_motion": 14.19388452,
        "meta_eccentricity": 0.005489,
        "meta_inclination": 98.6175,
        "meta_ra_of_asc_node": 317.7793,
        "meta_arg_of_pericenter": 330.1727,
        "meta_mean_anomaly": 47.9039,
        "meta_ephemeris_type": 0,
        "meta_classification_type": "U",
        "meta_norad_cat_id": 31369,
        "meta_element_set_no": 999,
        "meta_rev_at_epoch": 64178,
        "meta_bstar": 0.00040201,
        "meta_mean_motion_dot": 8.15e-06,
        "meta_mean_motion_ddot": 0,
        "tle_line1": "1 31369U 99025BRZ 25336.21939801  .00000815  00000+0  40201-3 0  9992",
        "tle_line2": "2 31369  98.6175 317.7793 0054890 330.1727  47.9039 14.19388452641789"
      },
      "geometry": {
        "type": "Point",
        "coordinates": [
          -34.20590785385229,
          -3.5854976848514943
        ]
      }
    }
  ]
}